     2.100          NAVIGATION                              RINEX VERSION / TYPE
fic2rin                                 01/24/2009 01:48:53 PGM / RUN BY / DATE
                                                            END OF HEADER
15 09  1 23  4  0  0.0 -.246170908213D-03 -.557065504836D-11  .000000000000D+00
     .230000000000D+02  .892812500000D+02  .473769734411D-08 -.121235725337D+01
     .451318919659D-05  .137727160472D-02  .273808836937D-05  .515357188988D+04
     .446400000000D+06 -.409781932831D-07 -.234424765162D+01 -.335276126862D-07
     .957089801626D+00  .326281250000D+03 -.787844471102D+00 -.836427697714D-08
     .195365280605D-09  .100000000000D+01  .151500000000D+04  .000000000000D+00
     .240000000000D+01  .000000000000D+00 -.977888703346D-08  .230000000000D+02
     .439206000000D+06  .400000000000D+01
16 09  1 23  4  0  0.0  .800583511591D-04 -.272848410532D-11  .000000000000D+00
     .820000000000D+02 -.767187500000D+02  .405981196461D-08  .112653007330D+00
    -.409595668316D-05  .498400256038D-02  .995397567749D-05  .515375556755D+04
     .446400000000D+06  .726431608200D-07 -.215114159911D+00 -.633299350739D-07
     .967816733292D+00  .192062500000D+03 -.389417670135D+00 -.776389482595D-08
     .158935191717D-09  .100000000000D+01  .151500000000D+04  .000000000000D+00
     .240000000000D+01  .000000000000D+00 -.977888703346D-08  .820000000000D+02
     .439206000000D+06  .400000000000D+01
17 09  1 23  4  0  0.0  .449563376606D-04  .909494701773D-12  .000000000000D+00
     .910000000000D+02  .815625000000D+01  .474805491840D-08 -.971761347064D+00
     .404193997383D-06  .414552330039D-02  .671669840813D-05  .515362442780D+04
     .446400000000D+06  .167638063431D-06  .826326159596D+00 -.521540641785D-07
     .959621363807D+00  .251125000000D+03 -.276718863814D+01 -.793568769610D-08
     .328942273195D-09  .100000000000D+01  .151500000000D+04  .000000000000D+00
     .340000000000D+01  .000000000000D+00 -.102445483208D-07  .910000000000D+02
     .439206000000D+06  .400000000000D+01
18 09  1 23  4  0  0.0 -.904635526240D-04  .363797880709D-11  .000000000000D+00
     .660000000000D+02  .792812500000D+02  .475162649574D-08  .235012340064D+00
     .420399010181D-05  .989435613155D-02  .945478677750D-05  .515375573921D+04
     .446400000000D+06 -.931322574615D-08  .293750214463D+01  .169500708580D-06
     .944466679434D+00  .189843750000D+03 -.243690507332D+01 -.814569644381D-08
    -.212508851847D-09  .100000000000D+01  .151500000000D+04  .000000000000D+00
     .240000000000D+01  .000000000000D+00 -.107102096081D-07  .660000000000D+02
     .439206000000D+06  .400000000000D+01
19 09  1 23  4  0  0.0  .334801152349D-04 -.454747350886D-12  .000000000000D+00
     .860000000000D+02  .124687500000D+02  .480662878681D-08 -.171690017169D+01
     .633299350739D-06  .507484318223D-02  .662915408611D-05  .515376958084D+04
     .446400000000D+06 -.596046447754D-07  .882736786902D+00 -.316649675369D-07
     .957307596481D+00  .253562500000D+03 -.390793821080D+00 -.803569186168D-08
     .397873715894D-09  .100000000000D+01  .151500000000D+04  .000000000000D+00
     .240000000000D+01  .000000000000D+00 -.144354999065D-07  .860000000000D+02
     .439206000000D+06  .400000000000D+01
20 09  1 23  4  0  0.0  .929092057049D-04 -.113686837722D-11  .000000000000D+00
     .750000000000D+02  .831250000000D+02  .470412451710D-08  .383215557255D+00
     .417791306973D-05  .387879414484D-02  .907666981220D-05  .515369627571D+04
     .446400000000D+06 -.223517417908D-07  .288377249611D+01  .186264514923D-07
     .944031094113D+00  .196125000000D+03  .130839993042D+01 -.805962142987D-08
    -.217866217860D-09  .100000000000D+01  .151500000000D+04  .000000000000D+00
     .240000000000D+01  .000000000000D+00 -.651925802231D-08  .750000000000D+02
     .439206000000D+06  .400000000000D+01
21 09  1 23  4  0  0.0  .325916334987D-04 -.181898940355D-11  .000000000000D+00
     .650000000000D+02 -.725000000000D+01  .536486632536D-08  .150390597172D+01
    -.227242708206D-06  .145678273402D-01  .708177685738D-05  .515364385605D+04
     .446400000000D+06 -.175088644028D-06  .187909388012D+01  .186264514923D-06
     .934272364057D+00  .231656250000D+03 -.265180727542D+01 -.840999316712D-08
    -.550380068396D-09  .100000000000D+01  .151500000000D+04  .000000000000D+00
     .240000000000D+01  .000000000000D+00 -.116415321827D-07  .650000000000D+02
     .439206000000D+06  .400000000000D+01
22 09  1 23  4  0  0.0  .206280965358D-03 -.454747350886D-12  .000000000000D+00
     .530000000000D+02  .806562500000D+02  .474769776067D-08 -.905625341308D+00
     .425055623055D-05  .492341129575D-02  .958144664764D-05  .515367195320D+04
     .446400000000D+06 -.670552253723D-07  .294346064800D+01  .968575477600D-07
     .942127000903D+00  .185937500000D+03 -.181480139253D+01 -.807819363205D-08
    -.178936024832D-09  .100000000000D+01  .151500000000D+04  .000000000000D+00
     .340000000000D+01  .000000000000D+00 -.181607902050D-07  .530000000000D+02
     .439206000000D+06  .400000000000D+01
23 09  1 23  4  0  0.0  .385632272810D-03  .795807864051D-12  .000000000000D+00
     .580000000000D+02  .744687500000D+02  .443947063606D-08 -.226653928945D+01
     .389479100704D-05  .576878874563D-02  .263378024101D-05  .515365126419D+04
     .446400000000D+06 -.800937414169D-07 -.232602356616D+01 -.502914190292D-07
     .970967746190D+00  .338093750000D+03  .288125987432D+01 -.813141013444D-08
     .179293182566D-09  .100000000000D+01  .151500000000D+04  .000000000000D+00
     .240000000000D+01  .000000000000D+00 -.200234353542D-07  .580000000000D+02
     .439206000000D+06  .400000000000D+01
24 09  1 23  4  0  0.0  .159704592079D-03  .295585778076D-11  .000000000000D+00
     .590000000000D+02 -.193750000000D+01  .498485049617D-08  .126842032646D+00
    -.651925802231D-07  .701693131123D-02  .689178705215D-05  .515366105080D+04
     .446400000000D+06 -.931322574615D-08  .190912454688D+01 -.102445483208D-06
     .950929089328D+00  .239687500000D+03 -.640698733023D+00 -.820677041636D-08
    -.356443418728D-09  .100000000000D+01  .151500000000D+04  .000000000000D+00
     .485000000000D+01  .000000000000D+00 -.139698386192D-08  .590000000000D+02
     .439206000000D+06  .400000000000D+01
25 09  1 23  4  0  0.0  .192811246961D-03  .258069121628D-10  .000000000000D+00
     .550000000000D+02 -.797500000000D+02  .458769109575D-08  .655116113999D+00
    -.432878732681D-05  .117900648620D-01  .293925404549D-05  .515367625237D+04
     .446400000000D+06 -.121071934700D-06 -.137795438513D+01 -.139698386192D-06
     .967830124844D+00  .330687500000D+03 -.123593642800D+01 -.843999441679D-08
    -.189293599124D-09  .100000000000D+01  .151500000000D+04  .000000000000D+00
     .685000000000D+01  .000000000000D+00 -.745058059692D-08  .550000000000D+02
     .439206000000D+06  .400000000000D+01
26 09  1 23  4  0  0.0  .385665334761D-04  .329691829393D-11  .000000000000D+00
     .260000000000D+02  .775000000000D+02  .393016370709D-08 -.270613366140D+01
     .383146107197D-05  .194886259269D-01  .198557972908D-05  .515364116859D+04
     .446400000000D+06  .214204192162D-06 -.227902528356D+01 -.245869159698D-06
     .993182631209D+00  .357906250000D+03  .966751171558D+00 -.772675042160D-08
     .278940190407D-09  .100000000000D+01  .151500000000D+04  .000000000000D+00
     .240000000000D+01  .000000000000D+00 -.605359673500D-08  .260000000000D+02
     .439206000000D+06  .400000000000D+01
27 09  1 23  4  0  0.0  .185174867511D-04  .306954461848D-11  .000000000000D+00
     .740000000000D+02 -.857812500000D+02  .440768359771D-08 -.121415645243D+00
    -.433810055256D-05  .210815699538D-01  .336021184921D-05  .515519371986D+04
     .446400000000D+06 -.318512320518D-06 -.134213875658D+01  .119209289551D-06
     .972490463971D+00  .322843750000D+03 -.165928396384D+01 -.853249826994D-08
    -.152149194768D-09  .100000000000D+01  .151500000000D+04  .000000000000D+00
     .340000000000D+01  .000000000000D+00 -.465661287308D-08  .740000000000D+02
     .439206000000D+06  .400000000000D+01
28 09  1 23  4  0  0.0 -.236923806369D-04  .113686837722D-12  .000000000000D+00
     .112000000000D+03 -.720937500000D+02  .423803367397D-08 -.557326399704D+00
    -.370107591152D-05  .145790793467D-01  .100061297417D-04  .515364204597D+04
     .446400000000D+06 -.968575477600D-07 -.206759209471D+00  .208616256714D-06
     .966002483732D+00  .191062500000D+03 -.206376944442D+01 -.799390440678D-08
     .231795369493D-09  .100000000000D+01  .151500000000D+04  .000000000000D+00
     .340000000000D+01  .000000000000D+00 -.102445483208D-07  .112000000000D+03
     .439206000000D+06  .400000000000D+01
29 09  1 23  4  0  0.0 -.161253847182D-04  .284217094304D-11  .000000000000D+00
     .450000000000D+02  .103750000000D+02  .473198282036D-08  .156469556342D+01
     .478699803352D-06  .322758150287D-02  .691413879395D-05  .515374680710D+04
     .446400000000D+06  .670552253723D-07  .834507076912D+00 -.912696123123D-07
     .959796739890D+00  .245625000000D+03 -.134300248535D+01 -.792854454142D-08
     .406445501515D-09  .100000000000D+01  .151500000000D+04  .000000000000D+00
     .240000000000D+01  .000000000000D+00 -.884756445885D-08  .450000000000D+02
     .439206000000D+06  .400000000000D+01
31 09  1 23  4  0  0.0 -.487570650876D-04 -.136424205266D-11  .000000000000D+00
     .540000000000D+02 -.897187500000D+02  .430553648573D-08  .236316205155D+01
    -.447966158390D-05  .715211359784D-02  .265054404736D-05  .515363131905D+04
     .446400000000D+06  .104308128357D-06 -.128587848506D+01 -.372529029846D-07
     .970926819594D+00  .330125000000D+03 -.120522863644D+01 -.802747723379D-08
    -.258582199558D-09  .100000000000D+01  .151500000000D+04  .000000000000D+00
     .240000000000D+01  .000000000000D+00 -.130385160446D-07  .540000000000D+02
     .439206000000D+06  .400000000000D+01
